HULIANWANG DIGUI-119    
1 67059U 25295A   26163.94652827 -.00000085  00000+0  83538-4 0  9995
2 67059  50.0046  40.9919 0000995  66.8634 293.2343 13.29329005 24930
HULIANWANG DIGUI-120    
1 67060U 25295B   26163.92982373 -.00000087  00000+0  80894-4 0  9991
2 67060  50.0052  40.9135 0000992  70.3874 289.7105 13.29328955 24931
HULIANWANG DIGUI-121    
1 67061U 25295C   26163.93817883 -.00000081  00000+0  92140-4 0  9997
2 67061  50.0011  40.8927 0000985  67.5218 292.5758 13.29328728 24931
HULIANWANG DIGUI-122    
1 67062U 25295D   26163.92139153 -.00000087  00000+0  80463-4 0  9995
2 67062  50.0046  40.8612 0000982  68.8970 291.2007 13.29330475 24932
HULIANWANG DIGUI-123    
1 67063U 25295E   26163.91306895 -.00000085  00000+0  84960-4 0  9998
2 67063  50.0047  40.8214 0000973  68.9085 291.1891 13.29330066 24936
HULIANWANG DIGUI-124    
1 67064U 25295F   26163.90485180 -.00000088  00000+0  77959-4 0  9996
2 67064  50.0008  40.7099 0000979  70.1980 289.8998 13.29327240 24931
HULIANWANG DIGUI-125    
1 67065U 25295G   26163.97162902 -.00000089  00000+0  76381-4 0  9997
2 67065  49.9998  40.3823 0000972  67.5354 292.5621 13.29327845 24942
HULIANWANG DIGUI-126    
1 67066U 25295H   26163.96321248 -.00000087  00000+0  79475-4 0  9992
2 67066  50.0003  40.3419 0001061  67.0413 293.0571 13.29328970 24945
HULIANWANG DIGUI-127    
1 67067U 25295J   26163.87968568 -.00000093  00000+0  66247-4 0  9995
2 67067  50.0020  40.5984 0001002  68.2897 291.8082 13.29328931 24937
HULIANWANG DIGUI-128    
1 67236U 25311A   26164.20230846 -.00000107  00000+0  37188-4 0  9999
2 67236  50.0069 129.8387 0001049 314.8089  45.2697 13.29321891 22816
HULIANWANG DIGUI-129    
1 67237U 25311B   26164.21062217 -.00000112  00000+0  25347-4 0  9996
2 67237  50.0070 129.8660 0001004 314.6377  45.4413 13.29323174 22816
HULIANWANG DIGUI-130    
1 67238U 25311C   26164.18559233 -.00000227  00000+0 -22154-3 0  9992
2 67238  50.0051 130.3619 0001103 314.4868  45.5914 13.29321576 22800
HULIANWANG DIGUI-131    
1 67239U 25311D   26164.19395454 -.00000137  00000+0 -28012-4 0  9997
2 67239  50.0044 130.3984 0001082 317.0822  42.9965 13.29321476 22809
HULIANWANG DIGUI-132    
1 67240U 25311E   26164.16887766 -.00000120  00000+0  91577-5 0  9996
2 67240  50.0045 130.2868 0001054 312.5185  47.5598 13.29322417 22802
HULIANWANG DIGUI-133    
1 67241U 25311F   26164.15218861 -.00000110  00000+0  30310-4 0  9996
2 67241  50.0100 130.2645 0001038 313.8209  46.2577 13.29322317 22803
HULIANWANG DIGUI-134    
1 67242U 25311G   26164.16051483 -.00000135  00000+0 -22805-4 0  9991
2 67242  50.0031 130.2085 0001068 313.0735  47.0047 13.29321854 22800
HULIANWANG DIGUI-135    
1 67243U 25311H   26164.17722339 -.00000121  00000+0  70407-5 0  9994
2 67243  50.0016 130.2744 0001079 311.9465  48.1315 13.29321824 22802
HULIANWANG DIGUI-136    
1 67244U 25311J   26164.21898377 -.00000110  00000+0  29428-4 0  9990
2 67244  50.0089 129.9349 0000992 314.6943  45.3849 13.29322689 22815
HULIANWANG DIGUI-137    
1 67435U 26007A   26164.09617675 -.00000109  00000+0  33024-4 0  9996
2 67435  50.0075 100.5202 0000924 351.9667   8.1190 13.29325360 20247
HULIANWANG DIGUI-138    
1 67436U 26007B   26164.03769964 -.00000107  00000+0  36141-4 0  9991
2 67436  50.0055 100.8500 0000931 351.3072   8.7784 13.29323751 20238
HULIANWANG DIGUI-139    
1 67437U 26007C   26164.10443019 -.00000104  00000+0  43194-4 0  9993
2 67437  50.0024 100.4997 0001017 341.1722  18.9112 13.29326634 20248
HULIANWANG DIGUI-140    
1 67438U 26007D   26164.04604603 -.00000108  00000+0  33537-4 0  9999
2 67438  50.0051 100.8870 0000896 351.0956   8.9901 13.29324497 20235
HULIANWANG DIGUI-141    
1 67439U 26007E   26164.08779903 -.00000104  00000+0  42533-4 0  9992
2 67439  50.0040 100.4356 0000908 352.1346   7.9512 13.29325302 20242
HULIANWANG DIGUI-142    
1 67440U 26007F   26164.07945675 -.00000107  00000+0  35691-4 0  9994
2 67440  50.0118 100.4892 0000885 352.1620   7.9239 13.29324924 20249
HULIANWANG DIGUI-143    
1 67441U 26007G   26164.07111346 -.00000112  00000+0  26475-4 0  9991
2 67441  50.0098 100.4215 0000748 350.6367   9.4491 13.29323456 20241
HULIANWANG DIGUI-144    
1 67442U 26007H   26164.13785713 -.00000109  00000+0  32926-4 0  9998
2 67442  50.0087 100.0956 0000872 356.7241   3.3625 13.29327772 20252
HULIANWANG DIGUI-145    
1 67443U 26007J   26164.05442767 -.00000112  00000+0  26667-4 0  9998
2 67443  50.0091 100.3271 0000864 351.1746   8.9111 13.29324158 20246
HULIANWANG DIGUI-155    
1 68129U 26047A   26164.01920708 -.00000096  00000+0  61405-4 0  9996
2 68129  50.0035  71.3339 0000498  81.1203 278.9726 13.29331874 12514
HULIANWANG DIGUI-156    
1 68130U 26047B   26164.01084249 -.00000097  00000+0  58662-4 0  9991
2 68130  50.0037  71.2918 0000487  79.8021 280.2906 13.29332093 12509
HULIANWANG DIGUI-157    
1 68131U 26047C   26164.00251542 -.00000096  00000+0  61486-4 0  9990
2 68131  50.0008  71.2264 0000499  81.6844 278.4085 13.29331270 12513
HULIANWANG DIGUI-158    
1 68132U 26047D   26163.99415196 -.00000097  00000+0  57311-4 0  9998
2 68132  50.0053  71.2202 0000569  85.0078 275.0859 13.29332050 12509
HULIANWANG DIGUI-159    
1 68133U 26047E   26164.06097003 -.00000101  00000+0  50280-4 0  9995
2 68133  50.0024  70.8826 0000705  76.6247 283.4704 13.29332311 12525
HULIANWANG DIGUI-160    
1 68134U 26047F   26164.04424115 -.00000095  00000+0  61606-4 0  9998
2 68134  50.0080  70.8424 0000746  64.9837 295.1112 13.29333397 12519
HULIANWANG DIGUI-161    
1 68135U 26047G   26164.05261567 -.00000098  00000+0  56779-4 0  9998
2 68135  50.0100  70.9017 0000520  75.4858 284.6072 13.29332511 12528
HULIANWANG DIGUI-162    
1 68136U 26047H   26164.03599827 -.00000098  00000+0  55662-4 0  9990
2 68136  50.0069  70.7924 0000454  80.9016 279.1907 13.29328797 12517
HULIANWANG DIGUI-163    
1 68137U 26047J   26164.02757061 -.00000094  00000+0  65620-4 0  9997
2 68137  50.0071  70.7507 0000474  86.7111 273.3816 13.29332104 12523
HULIANWANG DIGUI-164    
1 68656U 26076A   26163.82050020  .00000006  00000+0 -19107-4 0  9995
2 68656  86.4968  45.3558 0002101  85.0290 275.1084 13.24415212  8798
HULIANWANG DIGUI-165    
1 68657U 26076B   26164.26624213  .00000011  00000+0 -86674-5 0  9996
2 68657  86.4990  45.2149 0001931  92.3985 267.7370 13.24414451  8857
HULIANWANG DIGUI-166    
1 68658U 26076C   26164.25869766  .00000022  00000+0  16870-4 0  9991
2 68658  86.4932  45.1669 0001924  91.4848 268.6506 13.24412144  8858
HULIANWANG DIGUI-167    
1 68659U 26076D   26164.25112827  .00000012  00000+0 -71635-5 0  9992
2 68659  86.4982  45.2059 0001859  92.0433 268.0914 13.24414404  8850
HULIANWANG DIGUI-168    
1 68660U 26076E   26164.24357085  .00000036  00000+0  49135-4 0  9994
2 68660  86.4968  45.1875 0001924  91.9938 268.1417 13.24415020  8845
GUOWANG TEST OBJECT A   
1 69320U 26120A   26158.46264223  .00009002  00000+0  24096-3 0  9996
2 69320  54.9967  71.5399 0009599 294.3963  65.6063 15.38803685  1198
GUOWANG TEST OBJECT B   
1 69321U 26120B   26164.11108278  .00009671  00000+0  25766-3 0  9990
2 69321  54.9986  46.0845 0009597 318.9519  41.0786 15.38855648  2064
GUOWANG TEST OBJECT C   
1 69322U 26120C   26158.91389784  .00016153  00000+0  41736-3 0  9993
2 69322  54.9968  69.4792 0009850 309.3319  50.6835 15.39284097  1266
GUOWANG TEST OBJECT D   
1 69323U 26120D   26164.17270684  .00004137  00000+0  11569-3 0  9997
2 69323  54.9983  45.7696 0010770 333.5436  26.5041 15.38955339  2070
